[{"COMMENT":"GENERATED VIA SPACETRACK.ORG API","ORIGINATOR":"18 SPCS","NORAD_CAT_ID":"43477","OBJECT_NAME":"GRACE-FO 2","OBJECT_TYPE":"PAYLOAD","CLASSIFICATION_TYPE":"U","INTLDES":"18047B","EPOCH":"2023-10-25 14:17:10","EPOCH_MICROSECONDS":"830336","MEAN_MOTION":"15.27148469","ECCENTRICITY":"0.0010782","INCLINATION":"88.9845","RA_OF_ASC_NODE":"331.4524","ARG_OF_PERICENTER":"251.7551","MEAN_ANOMALY":"108.2525","EPHEMERIS_TYPE":"0","ELEMENT_SET_NO":"999","REV_AT_EPOCH":"30189","BSTAR":"0.00011389","MEAN_MOTION_DOT":"0.00003063","MEAN_MOTION_DDOT":"0","FILE":"4051739","TLE_LINE0":"0 GRACE-FO 2","TLE_LINE1":"1 43477U 18047B   23298.59526424  .00003063  00000-0  11389-3 0  9993","TLE_LINE2":"2 43477  88.9845 331.4524 0010782 251.7551 108.2525 15.27148469301896","OBJECT_ID":"2018-047B","OBJECT_NUMBER":"43477","SEMIMAJOR_AXIS":"6862.479","PERIOD":"94.293","APOGEE":"491.743","PERIGEE":"476.944","DECAYED":"0"},{"COMMENT":"GENERATED VIA SPACETRACK.ORG API","ORIGINATOR":"18 SPCS","NORAD_CAT_ID":"43477","OBJECT_NAME":"GRACE-FO 2","OBJECT_TYPE":"PAYLOAD","CLASSIFICATION_TYPE":"U","INTLDES":"18047B","EPOCH":"2023-10-25 14:17:10","EPOCH_MICROSECONDS":"830336","MEAN_MOTION":"15.27148469","ECCENTRICITY":"0.0010782","INCLINATION":"88.9845","RA_OF_ASC_NODE":"331.4524","ARG_OF_PERICENTER":"251.7551","MEAN_ANOMALY":"108.2525","EPHEMERIS_TYPE":"0","ELEMENT_SET_NO":"999","REV_AT_EPOCH":"30189","BSTAR":"0.00011389","MEAN_MOTION_DOT":"0.00003063","MEAN_MOTION_DDOT":"0","FILE":"4052988","TLE_LINE0":"0 GRACE-FO 2","TLE_LINE1":"1 43477U 18047B   23298.59526424  .00003063  00000-0  11389-3 0  9993","TLE_LINE2":"2 43477  88.9845 331.4524 0010782 251.7551 108.2525 15.27148469301896","OBJECT_ID":"2018-047B","OBJECT_NUMBER":"43477","SEMIMAJOR_AXIS":"6862.479","PERIOD":"94.293","APOGEE":"491.743","PERIGEE":"476.944","DECAYED":"0"},{"COMMENT":"GENERATED VIA SPACETRACK.ORG API","ORIGINATOR":"18 SPCS","NORAD_CAT_ID":"43477","OBJECT_NAME":"GRACE-FO 2","OBJECT_TYPE":"PAYLOAD","CLASSIFICATION_TYPE":"U","INTLDES":"18047B","EPOCH":"2023-10-26 13:52:34","EPOCH_MICROSECONDS":"135104","MEAN_MOTION":"15.27155888","ECCENTRICITY":"0.0010841","INCLINATION":"88.9842","RA_OF_ASC_NODE":"331.3183","ARG_OF_PERICENTER":"247.0173","MEAN_ANOMALY":"112.9933","EPHEMERIS_TYPE":"0","ELEMENT_SET_NO":"999","REV_AT_EPOCH":"30204","BSTAR":"0.0001277","MEAN_MOTION_DOT":"0.00003432","MEAN_MOTION_DDOT":"0","FILE":"4054082","TLE_LINE0":"0 GRACE-FO 2","TLE_LINE1":"1 43477U 18047B   23299.57817286  .00003432  00000-0  12770-3 0  9996","TLE_LINE2":"2 43477  88.9842 331.3183 0010841 247.0173 112.9933 15.27155888302043","OBJECT_ID":"2018-047B","OBJECT_NUMBER":"43477","SEMIMAJOR_AXIS":"6862.456","PERIOD":"94.293","APOGEE":"491.761","PERIGEE":"476.882","DECAYED":"0"},{"COMMENT":"GENERATED VIA SPACETRACK.ORG API","ORIGINATOR":"18 SPCS","NORAD_CAT_ID":"43477","OBJECT_NAME":"GRACE-FO 2","OBJECT_TYPE":"PAYLOAD","CLASSIFICATION_TYPE":"U","INTLDES":"18047B","EPOCH":"2023-10-26 20:10:00","EPOCH_MICROSECONDS":"265440","MEAN_MOTION":"15.27158317","ECCENTRICITY":"0.0010861","INCLINATION":"88.9841","RA_OF_ASC_NODE":"331.2825","ARG_OF_PERICENTER":"245.7467","MEAN_ANOMALY":"114.2648","EPHEMERIS_TYPE":"0","ELEMENT_SET_NO":"999","REV_AT_EPOCH":"30208","BSTAR":"0.00013491","MEAN_MOTION_DOT":"0.00003624","MEAN_MOTION_DDOT":"0","FILE":"4054156","TLE_LINE0":"0 GRACE-FO 2","TLE_LINE1":"1 43477U 18047B   23299.84028085  .00003624  00000-0  13491-3 0  9991","TLE_LINE2":"2 43477  88.9841 331.2825 0010861 245.7467 114.2648 15.27158317302089","OBJECT_ID":"2018-047B","OBJECT_NUMBER":"43477","SEMIMAJOR_AXIS":"6862.449","PERIOD":"94.293","APOGEE":"491.767","PERIGEE":"476.861","DECAYED":"0"},{"COMMENT":"GENERATED VIA SPACETRACK.ORG API","ORIGINATOR":"18 SPCS","NORAD_CAT_ID":"43477","OBJECT_NAME":"GRACE-FO 2","OBJECT_TYPE":"PAYLOAD","CLASSIFICATION_TYPE":"U","INTLDES":"18047B","EPOCH":"2023-10-26 20:10:00","EPOCH_MICROSECONDS":"265440","MEAN_MOTION":"15.27158317","ECCENTRICITY":"0.0010861","INCLINATION":"88.9841","RA_OF_ASC_NODE":"331.2825","ARG_OF_PERICENTER":"245.7467","MEAN_ANOMALY":"114.2648","EPHEMERIS_TYPE":"0","ELEMENT_SET_NO":"999","REV_AT_EPOCH":"30208","BSTAR":"0.00013491","MEAN_MOTION_DOT":"0.00003624","MEAN_MOTION_DDOT":"0","FILE":"4054421","TLE_LINE0":"0 GRACE-FO 2","TLE_LINE1":"1 43477U 18047B   23299.84028085  .00003624  00000-0  13491-3 0  9991","TLE_LINE2":"2 43477  88.9841 331.2825 0010861 245.7467 114.2648 15.27158317302089","OBJECT_ID":"2018-047B","OBJECT_NUMBER":"43477","SEMIMAJOR_AXIS":"6862.449","PERIOD":"94.293","APOGEE":"491.767","PERIGEE":"476.861","DECAYED":"0"},{"COMMENT":"GENERATED VIA SPACETRACK.ORG API","ORIGINATOR":"18 SPCS","NORAD_CAT_ID":"43477","OBJECT_NAME":"GRACE-FO 2","OBJECT_TYPE":"PAYLOAD","CLASSIFICATION_TYPE":"U","INTLDES":"18047B","EPOCH":"2023-10-27 13:27:57","EPOCH_MICROSECONDS":"46752","MEAN_MOTION":"15.27164066","ECCENTRICITY":"0.0010924","INCLINATION":"88.9838","RA_OF_ASC_NODE":"331.1842","ARG_OF_PERICENTER":"242.1769","MEAN_ANOMALY":"117.8373","EPHEMERIS_TYPE":"0","ELEMENT_SET_NO":"999","REV_AT_EPOCH":"30219","BSTAR":"0.00015239","MEAN_MOTION_DOT":"0.0000409","MEAN_MOTION_DDOT":"0","FILE":"4055819","TLE_LINE0":"0 GRACE-FO 2","TLE_LINE1":"1 43477U 18047B   23300.56107693  .00004090  00000-0  15239-3 0  9996","TLE_LINE2":"2 43477  88.9838 331.1842 0010924 242.1769 117.8373 15.27164066302193","OBJECT_ID":"2018-047B","OBJECT_NUMBER":"43477","SEMIMAJOR_AXIS":"6862.432","PERIOD":"94.292","APOGEE":"491.793","PERIGEE":"476.800","DECAYED":"0"},{"COMMENT":"GENERATED VIA SPACETRACK.ORG API","ORIGINATOR":"18 SPCS","NORAD_CAT_ID":"43477","OBJECT_NAME":"GRACE-FO 2","OBJECT_TYPE":"PAYLOAD","CLASSIFICATION_TYPE":"U","INTLDES":"18047B","EPOCH":"2023-10-27 19:45:23","EPOCH_MICROSECONDS":"70816","MEAN_MOTION":"15.27166321","ECCENTRICITY":"0.0010947","INCLINATION":"88.9837","RA_OF_ASC_NODE":"331.1483","ARG_OF_PERICENTER":"240.9304","MEAN_ANOMALY":"119.0849","EPHEMERIS_TYPE":"0","ELEMENT_SET_NO":"999","REV_AT_EPOCH":"30223","BSTAR":"0.00015468","MEAN_MOTION_DOT":"0.00004152","MEAN_MOTION_DDOT":"0","FILE":"4056385","TLE_LINE0":"0 GRACE-FO 2","TLE_LINE1":"1 43477U 18047B   23300.82318369  .00004152  00000-0  15468-3 0  9992","TLE_LINE2":"2 43477  88.9837 331.1483 0010947 240.9304 119.0849 15.27166321302232","OBJECT_ID":"2018-047B","OBJECT_NUMBER":"43477","SEMIMAJOR_AXIS":"6862.425","PERIOD":"94.292","APOGEE":"491.802","PERIGEE":"476.778","DECAYED":"0"},{"COMMENT":"GENERATED VIA SPACETRACK.ORG API","ORIGINATOR":"18 SPCS","NORAD_CAT_ID":"43477","OBJECT_NAME":"GRACE-FO 2","OBJECT_TYPE":"PAYLOAD","CLASSIFICATION_TYPE":"U","INTLDES":"18047B","EPOCH":"2023-10-28 00:28:27","EPOCH_MICROSECONDS":"568992","MEAN_MOTION":"15.27168052","ECCENTRICITY":"0.0010967","INCLINATION":"88.9836","RA_OF_ASC_NODE":"331.1215","ARG_OF_PERICENTER":"240.0028","MEAN_ANOMALY":"120.0133","EPHEMERIS_TYPE":"0","ELEMENT_SET_NO":"999","REV_AT_EPOCH":"30226","BSTAR":"0.0001555","MEAN_MOTION_DOT":"0.00004174","MEAN_MOTION_DDOT":"0","FILE":"4056449","TLE_LINE0":"0 GRACE-FO 2","TLE_LINE1":"1 43477U 18047B   23301.01976353  .00004174  00000-0  15550-3 0  9993","TLE_LINE2":"2 43477  88.9836 331.1215 0010967 240.0028 120.0133 15.27168052302264","OBJECT_ID":"2018-047B","OBJECT_NUMBER":"43477","SEMIMAJOR_AXIS":"6862.420","PERIOD":"94.292","APOGEE":"491.811","PERIGEE":"476.759","DECAYED":"0"},{"COMMENT":"GENERATED VIA SPACETRACK.ORG API","ORIGINATOR":"18 SPCS","NORAD_CAT_ID":"43477","OBJECT_NAME":"GRACE-FO 2","OBJECT_TYPE":"PAYLOAD","CLASSIFICATION_TYPE":"U","INTLDES":"18047B","EPOCH":"2023-10-28 13:03:19","EPOCH_MICROSECONDS":"475424","MEAN_MOTION":"15.27172675","ECCENTRICITY":"0.0011027","INCLINATION":"88.9834","RA_OF_ASC_NODE":"331.0498","ARG_OF_PERICENTER":"237.5141","MEAN_ANOMALY":"122.5043","EPHEMERIS_TYPE":"0","ELEMENT_SET_NO":"999","REV_AT_EPOCH":"30234","BSTAR":"0.00015683","MEAN_MOTION_DOT":"0.0000421","MEAN_MOTION_DDOT":"0","FILE":"4057688","TLE_LINE0":"0 GRACE-FO 2","TLE_LINE1":"1 43477U 18047B   23301.54397541  .00004210  00000-0  15683-3 0  9995","TLE_LINE2":"2 43477  88.9834 331.0498 0011027 237.5141 122.5043 15.27172675302341","OBJECT_ID":"2018-047B","OBJECT_NUMBER":"43477","SEMIMAJOR_AXIS":"6862.406","PERIOD":"94.292","APOGEE":"491.838","PERIGEE":"476.704","DECAYED":"0"},{"COMMENT":"GENERATED VIA SPACETRACK.ORG API","ORIGINATOR":"18 SPCS","NORAD_CAT_ID":"43477","OBJECT_NAME":"GRACE-FO 2","OBJECT_TYPE":"PAYLOAD","CLASSIFICATION_TYPE":"U","INTLDES":"18047B","EPOCH":"2023-10-28 20:55:06","EPOCH_MICROSECONDS":"830976","MEAN_MOTION":"15.27175963","ECCENTRICITY":"0.0011056","INCLINATION":"88.9833","RA_OF_ASC_NODE":"331.005","ARG_OF_PERICENTER":"235.9524","MEAN_ANOMALY":"124.0676","EPHEMERIS_TYPE":"0","ELEMENT_SET_NO":"999","REV_AT_EPOCH":"30239","BSTAR":"0.00016104","MEAN_MOTION_DOT":"0.00004322","MEAN_MOTION_DDOT":"0","FILE":"4058258","TLE_LINE0":"0 GRACE-FO 2","TLE_LINE1":"1 43477U 18047B   23301.87160684  .00004322  00000-0  16104-3 0  9990","TLE_LINE2":"2 43477  88.9833 331.0050 0011056 235.9524 124.0676 15.27175963302390","OBJECT_ID":"2018-047B","OBJECT_NUMBER":"43477","SEMIMAJOR_AXIS":"6862.396","PERIOD":"94.292","APOGEE":"491.848","PERIGEE":"476.674","DECAYED":"0"}]